{
  "norad_id": 61982,
  "name": "STARLINK-32560",
  "history": [
    {
      "epoch": "2026-03-28T15:45:56.202336Z",
      "apogee_km": 483.7186054972808,
      "perigee_km": 482.25444173734195,
      "latitude_deg": -2.3674445481802076e-05,
      "longitude_deg": 9.898091852785287,
      "height_km": 482.7733779345929,
      "semi_major_axis_km": 6861.123523617312,
      "eccentricity": 0.0001067,
      "inclination_deg": 42.9998,
      "raan_deg": 72.4565,
      "arg_perigee_deg": 269.1814,
      "mean_anomaly_deg": 90.8915,
      "mean_motion_rev_day": 15.27600897
    },
    {
      "epoch": "2026-03-28T23:36:42.867072Z",
      "apogee_km": 483.43710256389204,
      "perigee_km": 482.49987555408643,
      "latitude_deg": 4.2933632198779035e-05,
      "longitude_deg": -109.96610955774155,
      "height_km": 482.7306663784966,
      "semi_major_axis_km": 6861.105489058989,
      "eccentricity": 6.83e-05,
      "inclination_deg": 43.0002,
      "raan_deg": 70.6089,
      "arg_perigee_deg": 271.7012,
      "mean_anomaly_deg": 88.3762,
      "mean_motion_rev_day": 15.2760692
    },
    {
      "epoch": "2026-03-30T05:25:41.221920Z",
      "apogee_km": 483.71292531797553,
      "perigee_km": 482.40106502609797,
      "latitude_deg": -2.9352216366940653e-05,
      "longitude_deg": 154.55106069921084,
      "height_km": 482.7809362052094,
      "semi_major_axis_km": 6861.193995172036,
      "eccentricity": 9.56e-05,
      "inclination_deg": 43.0025,
      "raan_deg": 63.5938,
      "arg_perigee_deg": 274.6054,
      "mean_anomaly_deg": 85.4688,
      "mean_motion_rev_day": 15.27577362
    },
    {
      "epoch": "2026-03-30T05:25:41.222784Z",
      "apogee_km": 483.7131997657352,
      "perigee_km": 482.4007905783383,
      "latitude_deg": -2.6217101624397343e-05,
      "longitude_deg": 154.5510604324851,
      "height_km": 482.78091417210936,
      "semi_major_axis_km": 6861.193995172036,
      "eccentricity": 9.564e-05,
      "inclination_deg": 43.0025,
      "raan_deg": 63.5938,
      "arg_perigee_deg": 274.6054,
      "mean_anomaly_deg": 85.4688,
      "mean_motion_rev_day": 15.27577362
    },
    {
      "epoch": "2026-03-30T14:50:37.654368Z",
      "apogee_km": 484.37454090015945,
      "perigee_km": 481.69689963434666,
      "latitude_deg": -2.175635838013831e-06,
      "longitude_deg": 10.712966872279024,
      "height_km": 482.557630400118,
      "semi_major_axis_km": 6861.172720267253,
      "eccentricity": 0.00019513,
      "inclination_deg": 42.9992,
      "raan_deg": 61.3775,
      "arg_perigee_deg": 280.9864,
      "mean_anomaly_deg": 79.0768,
      "mean_motion_rev_day": 15.27584467
    },
    {
      "epoch": "2026-03-31T14:22:59.582208Z",
      "apogee_km": 483.8501521672424,
      "perigee_km": 482.25149540429993,
      "latitude_deg": -7.297983636675709e-06,
      "longitude_deg": 11.116366882575736,
      "height_km": 482.2738848562363,
      "semi_major_axis_km": 6861.187823785771,
      "eccentricity": 0.0001165,
      "inclination_deg": 42.9982,
      "raan_deg": 55.839,
      "arg_perigee_deg": 46.3917,
      "mean_anomaly_deg": 313.7031,
      "mean_motion_rev_day": 15.27579423
    },
    {
      "epoch": "2026-04-01T13:55:19.987680Z",
      "apogee_km": 483.5422460295249,
      "perigee_km": 482.504838555531,
      "latitude_deg": -1.9589909825412294e-05,
      "longitude_deg": 11.524819810573028,
      "height_km": 482.70904709113194,
      "semi_major_axis_km": 6861.160542292528,
      "eccentricity": 7.56e-05,
      "inclination_deg": 43.0002,
      "raan_deg": 50.2992,
      "arg_perigee_deg": 280.0661,
      "mean_anomaly_deg": 80.0105,
      "mean_motion_rev_day": 15.27588534
    }
  ]
}